{
  "type": "FeatureCollection",
  "features": [
    {
      "type": "Feature",
      "properties": {
        "norad_id": 66632,
        "name": "STARLINK-35973",
        "group": "last-30-days",
        "lat": -52.9666161774908,
        "lon": 120.53278933690363,
        "alt_km": 378.2207162784707,
        "timestamp": "2025-12-09T05:43:19.510509+00:00",
        "meta_object_name": "STARLINK-35973",
        "meta_object_id": "2025-271R",
        "meta_epoch": "2025-12-08T20:00:01.999008",
        "meta_mean_motion": 15.66966154,
        "meta_eccentricity": 0.0001147,
        "meta_inclination": 53.1593,
        "meta_ra_of_asc_node": 206.1065,
        "meta_arg_of_pericenter": 94.8792,
        "meta_mean_anomaly": 53.9735,
        "meta_ephemeris_type": 0,
        "meta_classification_type": "U",
        "meta_norad_cat_id": 66632,
        "meta_element_set_no": 999,
        "meta_rev_at_epoch": 355,
        "meta_bstar": -0.020906,
        "meta_mean_motion_dot": -0.01994219,
        "meta_mean_motion_ddot": 0,
        "tle_line1": "1 66632U 25271R   25342.83335647 -.01994219  00000+0 -20906-1 0  9999",
        "tle_line2": "2 66632  53.1593 206.1065 0001147  94.8792  53.9735 15.66966154  3557"
      },
      "geometry": {
        "type": "Point",
        "coordinates": [
          120.53278933690363,
          -52.9666161774908
        ]
      }
    },
    {
      "type": "Feature",
      "properties": {
        "norad_id": 66633,
        "name": "STARLINK-35948",
        "group": "last-30-days",
        "lat": -52.75364957206234,
        "lon": 123.67509553045964,
        "alt_km": 378.1774245872457,
        "timestamp": "2025-12-09T05:43:19.510519+00:00",
        "meta_object_name": "STARLINK-35948",
        "meta_object_id": "2025-271S",
        "meta_epoch": "2025-12-08T20:00:01.999008",
        "meta_mean_motion": 15.66965879,
        "meta_eccentricity": 0.0001086,
        "meta_inclination": 53.1589,
        "meta_ra_of_asc_node": 206.1017,
        "meta_arg_of_pericenter": 96.6589,
        "meta_mean_anomaly": 54.1105,
        "meta_ephemeris_type": 0,
        "meta_classification_type": "U",
        "meta_norad_cat_id": 66633,
        "meta_element_set_no": 999,
        "meta_rev_at_epoch": 361,
        "meta_bstar": -0.020917,
        "meta_mean_motion_dot": -0.01995154,
        "meta_mean_motion_ddot": 0,
        "tle_line1": "1 66633U 25271S   25342.83335647 -.01995154  00000+0 -20917-1 0  9991",
        "tle_line2": "2 66633  53.1589 206.1017 0001086  96.6589  54.1105 15.66965879  3610"
      },
      "geometry": {
        "type": "Point",
        "coordinates": [
          123.67509553045964,
          -52.75364957206234
        ]
      }
    },
    {
      "type": "Feature",
      "properties": {
        "norad_id": 66634,
        "name": "STARLINK-35967",
        "group": "last-30-days",
        "lat": -52.458570697522276,
        "lon": 126.78448229098586,
        "alt_km": 378.19297718359485,
        "timestamp": "2025-12-09T05:43:19.510529+00:00",
        "meta_object_name": "STARLINK-35967",
        "meta_object_id": "2025-271T",
        "meta_epoch": "2025-12-08T20:00:01.999008",
        "meta_mean_motion": 15.66969088,
        "meta_eccentricity": 0.0001111,
        "meta_inclination": 53.1591,
        "meta_ra_of_asc_node": 206.0973,
        "meta_arg_of_pericenter": 96.9451,
        "meta_mean_anomaly": 55.7413,
        "meta_ephemeris_type": 0,
        "meta_classification_type": "U",
        "meta_norad_cat_id": 66634,
        "meta_element_set_no": 999,
        "meta_rev_at_epoch": 354,
        "meta_bstar": -0.020978,
        "meta_mean_motion_dot": -0.02000487,
        "meta_mean_motion_ddot": 0,
        "tle_line1": "1 66634U 25271T   25342.83335647 -.02000487  00000+0 -20978-1 0  9996",
        "tle_line2": "2 66634  53.1591 206.0973 0001111  96.9451  55.7413 15.66969088  3541"
      },
      "geometry": {
        "type": "Point",
        "coordinates": [
          126.78448229098586,
          -52.458570697522276
        ]
      }
    },
    {
      "type": "Feature",
      "properties": {
        "norad_id": 66635,
        "name": "STARLINK-35955",
        "group": "last-30-days",
        "lat": -52.08277287081958,
        "lon": 129.84705090842522,
        "alt_km": 378.23200005550007,
        "timestamp": "2025-12-09T05:43:19.510541+00:00",
        "meta_object_name": "STARLINK-35955",
        "meta_object_id": "2025-271U",
        "meta_epoch": "2025-12-08T20:00:01.999008",
        "meta_mean_motion": 15.66965918,
        "meta_eccentricity": 0.0001192,
        "meta_inclination": 53.1591,
        "meta_ra_of_asc_node": 206.0936,
        "meta_arg_of_pericenter": 98.8256,
        "meta_mean_anomaly": 55.7782,
        "meta_ephemeris_type": 0,
        "meta_classification_type": "U",
        "meta_norad_cat_id": 66635,
        "meta_element_set_no": 999,
        "meta_rev_at_epoch": 361,
        "meta_bstar": -0.020908,
        "meta_mean_motion_dot": -0.01994424,
        "meta_mean_motion_ddot": 0,
        "tle_line1": "1 66635U 25271U   25342.83335647 -.01994424  00000+0 -20908-1 0  9992",
        "tle_line2": "2 66635  53.1591 206.0936 0001192  98.8256  55.7782 15.66965918  3619"
      },
      "geometry": {
        "type": "Point",
        "coordinates": [
          129.84705090842522,
          -52.08277287081958
        ]
      }
    },
    {
      "type": "Feature",
      "properties": {
        "norad_id": 66636,
        "name": "STARLINK-35968",
        "group": "last-30-days",
        "lat": -51.62933644939002,
        "lon": 132.85087836629995,
        "alt_km": 378.20379789789513,
        "timestamp": "2025-12-09T05:43:19.510551+00:00",
        "meta_object_name": "STARLINK-35968",
        "meta_object_id": "2025-271V",
        "meta_epoch": "2025-12-08T20:00:01.999008",
        "meta_mean_motion": 15.66963734,
        "meta_eccentricity": 0.0001174,
        "meta_inclination": 53.1593,
        "meta_ra_of_asc_node": 206.0894,
        "meta_arg_of_pericenter": 98.5214,
        "meta_mean_anomaly": 57.9998,
        "meta_ephemeris_type": 0,
        "meta_classification_type": "U",
        "meta_norad_cat_id": 66636,
        "meta_element_set_no": 999,
        "meta_rev_at_epoch": 361,
        "meta_bstar": -0.020873,
        "meta_mean_motion_dot": -0.01991331,
        "meta_mean_motion_ddot": 0,
        "tle_line1": "1 66636U 25271V   25342.83335647 -.01991331  00000+0 -20873-1 0  9998",
        "tle_line2": "2 66636  53.1593 206.0894 0001174  98.5214  57.9998 15.66963734  3613"
      },
      "geometry": {
        "type": "Point",
        "coordinates": [
          132.85087836629995,
          -51.62933644939002
        ]
      }
    },
    {
      "type": "Feature",
      "properties": {
        "norad_id": 66637,
        "name": "STARLINK-35953",
        "group": "last-30-days",
        "lat": -51.10022639279514,
        "lon": 135.79125274136058,
        "alt_km": 378.17217450738735,
        "timestamp": "2025-12-09T05:43:19.510564+00:00",
        "meta_object_name": "STARLINK-35953",
        "meta_object_id": "2025-271W",
        "meta_epoch": "2025-12-08T20:00:01.999008",
        "meta_mean_motion": 15.66965529,
        "meta_eccentricity": 0.0001172,
        "meta_inclination": 53.1592,
        "meta_ra_of_asc_node": 206.0856,
        "meta_arg_of_pericenter": 93.2615,
        "meta_mean_anomaly": 65.1755,
        "meta_ephemeris_type": 0,
        "meta_classification_type": "U",
        "meta_norad_cat_id": 66637,
        "meta_element_set_no": 999,
        "meta_rev_at_epoch": 361,
        "meta_bstar": -0.020881,
        "meta_mean_motion_dot": -0.01992109,
        "meta_mean_motion_ddot": 0,
        "tle_line1": "1 66637U 25271W   25342.83335647 -.01992109  00000+0 -20881-1 0  9992",
        "tle_line2": "2 66637  53.1592 206.0856 0001172  93.2615  65.1755 15.66965529  3612"
      },
      "geometry": {
        "type": "Point",
        "coordinates": [
          135.79125274136058,
          -51.10022639279514
        ]
      }
    },
    {
      "type": "Feature",
      "properties": {
        "norad_id": 66638,
        "name": "STARLINK-35972",
        "group": "last-30-days",
        "lat": -50.498571654647144,
        "lon": 138.66083831053663,
        "alt_km": 378.15068570044696,
        "timestamp": "2025-12-09T05:43:19.510574+00:00",
        "meta_object_name": "STARLINK-35972",
        "meta_object_id": "2025-271X",
        "meta_epoch": "2025-12-08T20:00:01.999008",
        "meta_mean_motion": 15.66966478,
        "meta_eccentricity": 0.0001163,
        "meta_inclination": 53.1588,
        "meta_ra_of_asc_node": 206.0819,
        "meta_arg_of_pericenter": 96.1352,
        "meta_mean_anomaly": 64.2173,
        "meta_ephemeris_type": 0,
        "meta_classification_type": "U",
        "meta_norad_cat_id": 66638,
        "meta_element_set_no": 999,
        "meta_rev_at_epoch": 361,
        "meta_bstar": -0.020889,
        "meta_mean_motion_dot": -0.01992887,
        "meta_mean_motion_ddot": 0,
        "tle_line1": "1 66638U 25271X   25342.83335647 -.01992887  00000+0 -20889-1 0  9994",
        "tle_line2": "2 66638  53.1588 206.0819 0001163  96.1352  64.2173 15.66966478  3615"
      },
      "geometry": {
        "type": "Point",
        "coordinates": [
          138.66083831053663,
          -50.498571654647144
        ]
      }
    }
  ]
}